[
    {
        "Altitude(m)": 607895.8053935723,
        "Argument of Periapsis(deg)": 0.0,
        "Eccentricity": 0.0,
        "Inclination(deg)": 60.0,
        "Latitude(deg)": 40.99830711213571,
        "Longitude(deg)": -14.911435525011942,
        "Mean Anomaly(deg)": -229.09089999999998,
        "RAAN(deg)": 295.00000000000006,
        "Satellite Name": "Test1 1306",
        "Satellite Number": 1306,
        "Semi-Major Axis(m)": 6980739.136638005,
        "Time(s)": 0
    },
    {
        "Altitude(m)": 607795.118566829,
        "Argument of Periapsis(deg)": 0.00010418945913296404,
        "Eccentricity": 0.0,
        "Inclination(deg)": 60.0,
        "Latitude(deg)": 40.53063218348864,
        "Longitude(deg)": -14.414840598272527,
        "Mean Anomaly(deg)": -228.47079385453813,
        "RAAN(deg)": 294.99957995086027,
        "Satellite Name": "Test1 1306",
        "Satellite Number": 1306,
        "Semi-Major Axis(m)": 6980739.136638005,
        "Time(s)": 10
    }
]